
# Worst residual: 59.78 km
# MJD 59461.000000 (2021 Sep  4  0:00)
2019-040A = NORAD 44432 = Spektr-RG
1 44432U 19040A   21247.49919926  .00000000  00000-0  00000-0 2 13465
2 44432 032.7428 116.8770 7014115 020.4163 204.7414 00.00936795    01

# Worst residual: 62.12 km
# MJD 59462.000000 (2021 Sep  5  0:00)
2019-040A = NORAD 44432 = Spektr-RG
1 44432U 19040A   21248.49919926  .00000000  00000-0  00000-0 2 13466
2 44432 032.0267 116.1885 6905308 021.7665 204.4457 00.00933292    01

# Worst residual: 63.93 km
# MJD 59463.000000 (2021 Sep  6  0:00)
2019-040A = NORAD 44432 = Spektr-RG
1 44432U 19040A   21249.49919926  .00000000  00000-0  00000-0 2 13704
2 44432 030.5439 114.5807 6891303 024.0675 204.2063 00.00937458    06

# Worst residual: 64.99 km
# MJD 59464.000000 (2021 Sep  7  0:00)
2019-040A = NORAD 44432 = Spektr-RG
1 44432U 19040A   21250.49919926  .00000000  00000-0  00000-0 2 13706
2 44432 029.7006 113.5667 6760438 025.6775 204.0406 00.00931754    03

# Worst residual: 65.15 km
# MJD 59465.000000 (2021 Sep  8  0:00)
2019-040A = NORAD 44432 = Spektr-RG
1 44432U 19040A   21251.49919926  .00000000  00000-0  00000-0 2 13707
2 44432 028.8134 112.3895 6617305 027.4091 203.9971 00.00924755    08

# Worst residual: 64.36 km
# MJD 59466.000000 (2021 Sep  9  0:00)
2019-040A = NORAD 44432 = Spektr-RG
1 44432U 19040A   21252.49919926  .00000000  00000-0  00000-0 2 13708
2 44432 027.9038 111.0490 6462461 029.2477 204.1297 00.00916457    01

# Worst residual: 62.51 km
# MJD 59467.000000 (2021 Sep 10  0:00)
2019-040A = NORAD 44432 = Spektr-RG
1 44432U 19040A   21253.49919926  .00000000  00000-0  00000-0 2 13709
2 44432 026.9964 109.5550 6297374 031.1697 204.4856 00.00906947    09

# Worst residual: 59.69 km
# MJD 59468.000000 (2021 Sep 11  0:00)
2019-040A = NORAD 44432 = Spektr-RG
1 44432U 19040A   21254.49919926  .00000000  00000-0  00000-0 2 13700
2 44432 026.1157 107.9273 6124412 033.1439 205.0984 00.00896409    07

# Worst residual: 56.10 km
# MJD 59469.000000 (2021 Sep 12  0:00)
2019-040A = NORAD 44432 = Spektr-RG
1 44432U 19040A   21255.49919926  .00000000  00000-0  00000-0 2 13701
2 44432 025.2837 106.1949 5946676 035.1343 205.9852 00.00885103    04

# Worst residual: 52.00 km
# MJD 59470.000000 (2021 Sep 13  0:00)
2019-040A = NORAD 44432 = Spektr-RG
1 44432U 19040A   21256.49919926  .00000000  00000-0  00000-0 2 13702
2 44432 024.5173 104.3925 5767740 037.1040 207.1449 00.00873344    02

# Worst residual: 47.68 km
# MJD 59471.000000 (2021 Sep 14  0:00)
2019-040A = NORAD 44432 = Spektr-RG
1 44432U 19040A   21257.49919926  .00000000  00000-0  00000-0 2 13703
2 44432 023.8272 102.5574 5591313 039.0199 208.5585 00.00861472    06

# Worst residual: 43.41 km
# MJD 59472.000000 (2021 Sep 15  0:00)
2019-040A = NORAD 44432 = Spektr-RG
1 44432U 19040A   21258.49919926  .00000000  00000-0  00000-0 2 13704
2 44432 023.2182 100.7251 5420899 040.8571 210.1913 00.00849823    06

# Worst residual: 39.46 km
# MJD 59473.000000 (2021 Sep 16  0:00)
2019-040A = NORAD 44432 = Spektr-RG
1 44432U 19040A   21259.49919926  .00000000  00000-0  00000-0 2 13705
2 44432 022.6897 098.9265 5259476 042.6029 211.9949 00.00838708    02

# Worst residual: 36.06 km
# MJD 59474.000000 (2021 Sep 17  0:00)
2019-040A = NORAD 44432 = Spektr-RG
1 44432U 19040A   21260.49919926  .00000000  00000-0  00000-0 2 13707
2 44432 022.2373 097.1845 5109231 044.2585 213.9098 00.00828393    06

# Worst residual: 33.39 km
# MJD 59475.000000 (2021 Sep 18  0:00)
2019-040A = NORAD 44432 = Spektr-RG
1 44432U 19040A   21261.49919926  .00000000  00000-0  00000-0 2 13708
2 44432 021.8537 095.5134 4971405 045.8392 215.8697 00.00819091    09

# Worst residual: 31.53 km
# MJD 59476.000000 (2021 Sep 19  0:00)
2019-040A = NORAD 44432 = Spektr-RG
1 44432U 19040A   21262.49919926  .00000000  00000-0  00000-0 2 13709
2 44432 021.5306 093.9180 4846277 047.3722 217.8057 00.00810954    06

# Worst residual: 30.53 km
# MJD 59477.000000 (2021 Sep 20  0:00)
2019-040A = NORAD 44432 = Spektr-RG
1 44432U 19040A   21263.49919926  .00000000  00000-0  00000-0 2 13700
2 44432 021.2594 092.3955 4733276 048.8919 219.6528 00.00804074    02

# Worst residual: 30.33 km
# MJD 59478.000000 (2021 Sep 21  0:00)
2019-040A = NORAD 44432 = Spektr-RG
1 44432U 19040A   21264.49919926  .00000000  00000-0  00000-0 2 13701
2 44432 021.0318 090.9362 4631171 050.4355 221.3557 00.00798482    01

# Worst residual: 30.88 km
# MJD 59479.000000 (2021 Sep 22  0:00)
2019-040A = NORAD 44432 = Spektr-RG
1 44432U 19040A   21265.49919926  .00000000  00000-0  00000-0 2 13702
2 44432 020.8410 089.5262 4538287 052.0378 222.8728 00.00794154    09

# Worst residual: 31.96 km
# MJD 59480.000000 (2021 Sep 23  0:00)
2019-040A = NORAD 44432 = Spektr-RG
1 44432U 19040A   21266.49919926  .00000000  00000-0  00000-0 2 13703
2 44432 020.6810 088.1483 4452712 053.7292 224.1777 00.00791013    02

# Worst residual: 33.46 km
# MJD 59481.000000 (2021 Sep 24  0:00)
2019-040A = NORAD 44432 = Spektr-RG
1 44432U 19040A   21267.49919926  .00000000  00000-0  00000-0 2 13704
2 44432 020.5477 086.7847 4372474 055.5338 225.2569 00.00788946    07

# Worst residual: 35.27 km
# MJD 59482.000000 (2021 Sep 25  0:00)
2019-040A = NORAD 44432 = Spektr-RG
1 44432U 19040A   21268.49919926  .00000000  00000-0  00000-0 2 13705
2 44432 020.4383 085.4179 4295671 057.4693 226.1072 00.00787813    05

# Worst residual: 37.31 km
# MJD 59483.000000 (2021 Sep 26  0:00)
2019-040A = NORAD 44432 = Spektr-RG
1 44432U 19040A   21269.49919926  .00000000  00000-0  00000-0 2 13706
2 44432 020.3514 084.0322 4220528 059.5481 226.7319 00.00787459    08

# Worst residual: 39.52 km
# MJD 59484.000000 (2021 Sep 27  0:00)
2019-040A = NORAD 44432 = Spektr-RG
1 44432U 19040A   21270.49919926  .00000000  00000-0  00000-0 2 13708
2 44432 020.2867 082.6138 4145399 061.7781 227.1385 00.00787717    02

# Worst residual: 41.86 km
# MJD 59485.000000 (2021 Sep 28  0:00)
2019-040A = NORAD 44432 = Spektr-RG
1 44432U 19040A   21271.49919926  .00000000  00000-0  00000-0 2 13709
2 44432 020.2450 081.1515 4068705 064.1633 227.3368 00.00788412    07

# Worst residual: 44.27 km
# MJD 59486.000000 (2021 Sep 29  0:00)
2019-040A = NORAD 44432 = Spektr-RG
1 44432U 19040A   21272.49919926  .00000000  00000-0  00000-0 2 13700
2 44432 020.2280 079.6359 3988851 066.7040 227.3380 00.00789350    04

# Worst residual: 46.72 km
# MJD 59487.000000 (2021 Sep 30  0:00)
2019-040A = NORAD 44432 = Spektr-RG
1 44432U 19040A   21273.49919926  .00000000  00000-0  00000-0 2 13701
2 44432 020.2382 078.0602 3904130 069.3962 227.1558 00.00790309    02

# Worst residual: 49.11 km
# MJD 59488.000000 (2021 Oct  1  0:00)
2019-040A = NORAD 44432 = Spektr-RG
1 44432U 19040A   21274.49919926  .00000000  00000-0  00000-0 2 13702
2 44432 020.2787 076.4202 3812638 072.2298 226.8078 00.00791034    04

# Worst residual: 51.34 km
# MJD 59489.000000 (2021 Oct  2  0:00)
2019-040A = NORAD 44432 = Spektr-RG
1 44432U 19040A   21275.49919926  .00000000  00000-0  00000-0 2 13703
2 44432 020.3531 074.7153 3712239 075.1863 226.3190 00.00791222    03

# Worst residual: 53.22 km
# MJD 59490.000000 (2021 Oct  3  0:00)
2019-040A = NORAD 44432 = Spektr-RG
1 44432U 19040A   21276.49919926  .00000000  00000-0  00000-0 2 13704
2 44432 020.4654 072.9506 3600606 078.2351 225.7244 00.00790524    09

# Worst residual: 54.53 km
# MJD 59491.000000 (2021 Oct  4  0:00)
2019-040A = NORAD 44432 = Spektr-RG
1 44432U 19040A   21277.49919926  .00000000  00000-0  00000-0 2 13705
2 44432 020.6192 071.1382 3475399 081.3300 225.0734 00.00788561    04

# Worst residual: 55.03 km
# MJD 59492.000000 (2021 Oct  5  0:00)
2019-040A = NORAD 44432 = Spektr-RG
1 44432U 19040A   21278.49919926  .00000000  00000-0  00000-0 2 13706
2 44432 020.8170 069.2990 3334586 084.4066 224.4310 00.00784960    02

# Worst residual: 54.64 km
# MJD 59493.000000 (2021 Oct  6  0:00)
2019-040A = NORAD 44432 = Spektr-RG
1 44432U 19040A   21279.49919926  .00000000  00000-0  00000-0 2 13707
2 44432 021.0591 067.4628 3176912 087.3830 223.8779 00.00779408    01

# Worst residual: 53.12 km
# MJD 59494.000000 (2021 Oct  7  0:00)
2019-040A = NORAD 44432 = Spektr-RG
1 44432U 19040A   21280.49919926  .00000000  00000-0  00000-0 2 13709
2 44432 021.3432 065.6658 3002403 090.1636 223.5059 00.00771722    09

# Worst residual: 50.50 km
# MJD 59495.000000 (2021 Oct  8  0:00)
2019-040A = NORAD 44432 = Spektr-RG
1 44432U 19040A   21281.49919926  .00000000  00000-0  00000-0 2 13700
2 44432 021.6637 063.9458 2812732 092.6473 223.4107 00.00761908    05

# Worst residual: 46.96 km
# MJD 59496.000000 (2021 Oct  9  0:00)
2019-040A = NORAD 44432 = Spektr-RG
1 44432U 19040A   21282.49919926  .00000000  00000-0  00000-0 2 13701
2 44432 022.0125 062.3365 2611295 094.7374 223.6828 00.00750183    01

# Worst residual: 42.82 km
# MJD 59497.000000 (2021 Oct 10  0:00)
2019-040A = NORAD 44432 = Spektr-RG
1 44432U 19040A   21283.49919926  .00000000  00000-0  00000-0 2 13702
2 44432 022.3800 060.8622 2402910 096.3503 224.3998 00.00736948    06

# Worst residual: 38.43 km
# MJD 59498.000000 (2021 Oct 11  0:00)
2019-040A = NORAD 44432 = Spektr-RG
1 44432U 19040A   21284.49919926  .00000000  00000-0  00000-0 2 13703
2 44432 022.7570 059.5355 2193241 097.4215 225.6207 00.00722734    03

# Worst residual: 34.15 km
# MJD 59499.000000 (2021 Oct 12  0:00)
2019-040A = NORAD 44432 = Spektr-RG
1 44432U 19040A   21285.49919926  .00000000  00000-0  00000-0 2 13704
2 44432 023.1356 058.3581 1988121 097.9102 227.3827 00.00708125    01

# Worst residual: 30.23 km
# MJD 59500.000000 (2021 Oct 13  0:00)
2019-040A = NORAD 44432 = Spektr-RG
1 44432U 19040A   21286.49919926  .00000000  00000-0  00000-0 2 13705
2 44432 023.5100 057.3230 1792937 097.8036 229.6959 00.00693689    04

# Worst residual: 26.87 km
# MJD 59501.000000 (2021 Oct 14  0:00)
2019-040A = NORAD 44432 = Spektr-RG
1 44432U 19040A   21287.49919926  .00000000  00000-0  00000-0 2 13706
2 44432 023.8767 056.4176 1612141 097.1246 232.5359 00.00679936    05
